KAITUO 1B               
1 40912U 15049P   17299.67985755  .00002240  00000-0  11284-3 0  9992
2 40912  97.4522 305.4239 0017359 102.8040   9.3227 15.18088389116230
TIANWANG 1C (TW-1C)     
1 40926U 15051B   17299.52972476  .00011566  00000-0  24551-3 0  9992
2 40926  97.2158 338.1536 0012727  57.2348  48.8468 15.45104708117183
TIANWANG 1B (TW-1B)     
1 40927U 15051C   17299.57419825  .00011550  00000-0  25483-3 0  9990
2 40927  97.2249 338.1552 0012868  67.1208  86.4578 15.43961021117125
TIANWANG 1A (TW-1A)     
1 40928U 15051D   17299.50718495  .00005268  00000-0  14632-3 0  9992
2 40928  97.2150 332.9518 0014266  85.0830  21.0154 15.37209512116863
LAPAN-A2 (IO-86)        
1 40931U 15052B   17299.68978652  .00000799  00000-0  22190-4 0  9992
2 40931   6.0020  15.0636 0013887 306.4257  53.4626 14.76551342112437
LQSAT                   
1 40958U 15057A   17299.62579365  .00000078  00000-0  19881-4 0  9991
2 40958  97.9676  12.5733 0018672   9.8636 350.2937 14.72995470110468
CHUBUSAT-2              
1 41338U 16012B   17298.59879423  .00000798  00000-0  56008-4 0  9990
2 41338  31.0047   3.9530 0013952 270.7809  89.1228 14.99846908 92581
CHUBUSAT-3              
1 41339U 16012C   17299.57412258  .00000588  00000-0  39254-4 0  9990
2 41339  31.0110 356.6960 0013866 286.4614  73.4500 15.00044502 92717
OUFTI-1                 
1 41458U 16025C   17299.55831915  .00002344  00000-0  12776-3 0  9990
2 41458  98.1671 344.6180 0171898 210.0533 149.0798 15.03781412 82314
E-ST@R-II               
1 41459U 16025D   17299.39503989  .00002960  00000-0  16029-3 0  9999
2 41459  98.1724 344.3689 0172960 210.9115 148.1858 15.03600100 82288
AAUSAT 4                
1 41460U 16025E   17299.63955656  .00002999  00000-0  16189-3 0  9999
2 41460  98.1639 344.8238 0164784 207.5630 151.6835 15.04697629 82354
NUSAT 1 (LO-87)         
1 41557U 16033B   17299.18158626  .00003680  00000-0  13895-3 0  9996
2 41557  97.4545  18.6765 0012466 263.9301  96.0517 15.27592467 78421
BEESAT-4                
1 41619U 16040W   17299.17670507  .00003948  00000-0  17923-3 0  9992
2 41619  97.4476   0.2336 0011064 337.6050  22.4701 15.21328727 62507
PRATHAM                 
1 41783U 16059A   17298.80552784  .00000147  00000-0  37897-4 0  9990
2 41783  98.1521 358.7255 0034895 110.6760 249.8188 14.62872011 57695
ALSAT 1N                
1 41789U 16059G   17299.43750444  .00000146  00000-0  36768-4 0  9994
2 41789  98.1535   0.1071 0029834 102.0005 258.4552 14.64091699 57816
NAYIF-1 (EO-88)         
1 42017U 17008BX  17299.62135767  .00003927  00000-0  16701-3 0  9994
2 42017  97.4803   0.7593 0008095 115.6881 244.5193 15.23592502 38499
LILACSAT-1              
1 42725U 98067ME  17299.68104984  .00029939  00000-0  37490-3 0  9996
2 42725  51.6380 100.0607 0005315  84.8527 275.3073 15.59506340 23962
MAX VALIER SAT          
1 42778U 17036P   17299.63930615  .00002846  00000-0  13221-3 0  9998
2 42778  97.4367 357.8542 0013485 160.8024 199.3723 15.20737044 19009
